{"type": "FeatureCollection", "features": [ {"type": "Feature", "properties": {"norad_id": 30196, "name": "FENGYUN 1C DEB", "group": "fengyun-1c-debris", "lat": 29.509138946220887, "lon": -101.37162875737651, "alt_km": 783.1159838668382, "timestamp": "2025-12-07T03:52:32.771657+00:00", "meta": {"OBJECT_NAME": "FENGYUN 1C DEB", "OBJECT_ID": "1999-025VD", "EPOCH": "2025-12-06T05:25:32.903328", "MEAN_MOTION": 14.258446, "ECCENTRICITY": 0.00870592, "INCLINATION": 98.6406, "RA_OF_ASC_NODE": 72.7691, "ARG_OF_PERICENTER": 81.9236, "MEAN_ANOMALY": 308.3579, "EPHEMERIS_TYPE": 0, "CLASSIFICATION_TYPE": "U", "NORAD_CAT_ID": 30196, "ELEMENT_SET_NO": 999, "REV_AT_EPOCH": 98272, "BSTAR": 0.00010974344, "MEAN_MOTION_DOT": 2.29e-06, "MEAN_MOTION_DDOT": 0}, "tle": {"line1": "1 30196U 99025VD  25340.22607527  .00000229  00000+0  10974-3 0  9995", "line2": "2 30196  98.6406  72.7691 0087059  81.9236 308.3579 14.25844600982721"}}, "geometry": {"type": "Point", "coordinates": [-101.37162875737651, 29.509138946220887]}}, {"type": "Feature", "properties": {"norad_id": 30197, "name": "FENGYUN 1C DEB", "group": "fengyun-1c-debris", "lat": 53.18090629252842, "lon": 98.4376284734135, "alt_km": 773.6966905469699, "timestamp": "2025-12-07T03:52:32.771667+00:00", "meta": {"OBJECT_NAME": "FENGYUN 1C DEB", "OBJECT_ID": "1999-025VE", "EPOCH": "2025-12-06T00:50:53.054592", "MEAN_MOTION": 14.37142224, "ECCENTRICITY": 0.00569032, "INCLINATION": 98.9378, "RA_OF_ASC_NODE": 265.1331, "ARG_OF_PERICENTER": 234.834, "MEAN_ANOMALY": 188.493, "EPHEMERIS_TYPE": 0, "CLASSIFICATION_TYPE": "U", "NORAD_CAT_ID": 30197, "ELEMENT_SET_NO": 999, "REV_AT_EPOCH": 98390, "BSTAR": 0.001483629, "MEAN_MOTION_DOT": 4.448e-05, "MEAN_MOTION_DDOT": 0}, "tle": {"line1": "1 30197U 99025VE  25340.03533628  .00004448  00000+0  14836-2 0  9992", "line2": "2 30197  98.9378 265.1331 0056903 234.8340 188.4930 14.37142224983906"}}, "geometry": {"type": "Point", "coordinates": [98.4376284734135, 53.18090629252842]}}, {"type": "Feature", "properties": {"norad_id": 30198, "name": "FENGYUN 1C DEB", "group": "fengyun-1c-debris", "lat": 3.880188175429092, "lon": -67.23823129372875, "alt_km": 668.2459610651222, "timestamp": "2025-12-07T03:52:32.771677+00:00", "meta": {"OBJECT_NAME": "FENGYUN 1C DEB", "OBJECT_ID": "1999-025VF", "EPOCH": "2025-12-06T15:32:21.063264", "MEAN_MOTION": 14.50193111, "ECCENTRICITY": 0.01070395, "INCLINATION": 98.4486, "RA_OF_ASC_NODE": 111.6686, "ARG_OF_PERICENTER": 216.821, "MEAN_ANOMALY": 157.8974, "EPHEMERIS_TYPE": 0, "CLASSIFICATION_TYPE": "U", "NORAD_CAT_ID": 30198, "ELEMENT_SET_NO": 999, "REV_AT_EPOCH": 98419, "BSTAR": 0.0035968618, "MEAN_MOTION_DOT": 0.00015034, "MEAN_MOTION_DDOT": 0}, "tle": {"line1": "1 30198U 99025VF  25340.64746601  .00015034  00000+0  35969-2 0  9990", "line2": "2 30198  98.4486 111.6686 0107039 216.8210 157.8974 14.50193111984199"}}, "geometry": {"type": "Point", "coordinates": [-67.23823129372875, 3.880188175429092]}}, {"type": "Feature", "properties": {"norad_id": 30199, "name": "FENGYUN 1C DEB", "group": "fengyun-1c-debris", "lat": 69.75041905716918, "lon": -18.545900957134275, "alt_km": 771.699251356421, "timestamp": "2025-12-07T03:52:32.771687+00:00", "meta": {"OBJECT_NAME": "FENGYUN 1C DEB", "OBJECT_ID": "1999-025VG", "EPOCH": "2025-12-06T14:47:23.548992", "MEAN_MOTION": 14.38459032, "ECCENTRICITY": 0.00779949, "INCLINATION": 98.385, "RA_OF_ASC_NODE": 4.488, "ARG_OF_PERICENTER": 327.2236, "MEAN_ANOMALY": 161.5529, "EPHEMERIS_TYPE": 0, "CLASSIFICATION_TYPE": "U", "NORAD_CAT_ID": 30199, "ELEMENT_SET_NO": 999, "REV_AT_EPOCH": 98322, "BSTAR": 0.0017460695, "MEAN_MOTION_DOT": 5.481e-05, "MEAN_MOTION_DDOT": 0}, "tle": {"line1": "1 30199U 99025VG  25340.61624478  .00005481  00000+0  17461-2 0  9997", "line2": "2 30199  98.3850   4.4880 0077994 327.2236 161.5529 14.38459032983224"}}, "geometry": {"type": "Point", "coordinates": [-18.545900957134275, 69.75041905716918]}}, {"type": "Feature", "properties": {"norad_id": 30200, "name": "FENGYUN 1C DEB", "group": "fengyun-1c-debris", "lat": 6.724816766428545, "lon": 174.6421255323416, "alt_km": 851.3737543457628, "timestamp": "2025-12-07T03:52:32.771697+00:00", "meta": {"OBJECT_NAME": "FENGYUN 1C DEB", "OBJECT_ID": "1999-025VH", "EPOCH": "2025-12-06T09:16:16.050432", "MEAN_MOTION": 14.22269638, "ECCENTRICITY": 0.01474889, "INCLINATION": 99.1133, "RA_OF_ASC_NODE": 174.9254, "ARG_OF_PERICENTER": 117.3218, "MEAN_ANOMALY": 244.3061, "EPHEMERIS_TYPE": 0, "CLASSIFICATION_TYPE": "U", "NORAD_CAT_ID": 30200, "ELEMENT_SET_NO": 999, "REV_AT_EPOCH": 97892, "BSTAR": 0.00027734795, "MEAN_MOTION_DOT": 6.42e-06, "MEAN_MOTION_DDOT": 0}, "tle": {"line1": "1 30200U 99025VH  25340.38629688  .00000642  00000+0  27735-3 0  9992", "line2": "2 30200  99.1133 174.9254 0147488 117.3218 244.3061 14.22269638978928"}}, "geometry": {"type": "Point", "coordinates": [174.6421255323416, 6.724816766428545]}}, {"type": "Feature", "properties": {"norad_id": 30201, "name": "FENGYUN 1C DEB", "group": "fengyun-1c-debris", "lat": -79.52773085035777, "lon": -128.6730055329364, "alt_km": 813.5277013125042, "timestamp": "2025-12-07T03:52:32.771707+00:00", "meta": {"OBJECT_NAME": "FENGYUN 1C DEB", "OBJECT_ID": "1999-025VJ", "EPOCH": "2025-12-05T21:56:27.512448", "MEAN_MOTION": 14.22919692, "ECCENTRICITY": 0.00288291, "INCLINATION": 99.4008, "RA_OF_ASC_NODE": 113.6714, "ARG_OF_PERICENTER": 332.5508, "MEAN_ANOMALY": 27.4144, "EPHEMERIS_TYPE": 0, "CLASSIFICATION_TYPE": "U", "NORAD_CAT_ID": 30201, "ELEMENT_SET_NO": 999, "REV_AT_EPOCH": 97730, "BSTAR": 0.00074646454, "MEAN_MOTION_DOT": 1.636e-05, "MEAN_MOTION_DDOT": 0}, "tle": {"line1": "1 30201U 99025VJ  25339.91420732  .00001636  00000+0  74646-3 0  9996", "line2": "2 30201  99.4008 113.6714 0028829 332.5508  27.4144 14.22919692977309"}}, "geometry": {"type": "Point", "coordinates": [-128.6730055329364, -79.52773085035777]}}, {"type": "Feature", "properties": {"norad_id": 30202, "name": "FENGYUN 1C DEB", "group": "fengyun-1c-debris", "lat": 15.743171720607862, "lon": 75.83176734974664, "alt_km": 705.1481311045582, "timestamp": "2025-12-07T03:52:32.771718+00:00", "meta": {"OBJECT_NAME": "FENGYUN 1C DEB", "OBJECT_ID": "1999-025VK", "EPOCH": "2025-12-06T12:55:13.135008", "MEAN_MOTION": 14.52198587, "ECCENTRICITY": 0.00393832, "INCLINATION": 98.641, "RA_OF_ASC_NODE": 77.6476, "ARG_OF_PERICENTER": 78.1522, "MEAN_ANOMALY": 282.4085, "EPHEMERIS_TYPE": 0, "CLASSIFICATION_TYPE": "U", "NORAD_CAT_ID": 30202, "ELEMENT_SET_NO": 999, "REV_AT_EPOCH": 98199, "BSTAR": 0.0039631191, "MEAN_MOTION_DOT": 0.00016228, "MEAN_MOTION_DDOT": 0}, "tle": {"line1": "1 30202U 99025VK  25340.53834647  .00016228  00000+0  39631-2 0  9998", "line2": "2 30202  98.6410  77.6476 0039383  78.1522 282.4085 14.52198587981990"}}, "geometry": {"type": "Point", "coordinates": [75.83176734974664, 15.743171720607862]}}, {"type": "Feature", "properties": {"norad_id": 30205, "name": "FENGYUN 1C DEB", "group": "fengyun-1c-debris", "lat": -77.0950951661711, "lon": 136.43826158585088, "alt_km": 933.1346064045101, "timestamp": "2025-12-07T03:52:32.771729+00:00", "meta": {"OBJECT_NAME": "FENGYUN 1C DEB", "OBJECT_ID": "1999-025VN", "EPOCH": "2025-12-06T05:55:24.765888", "MEAN_MOTION": 13.88032873, "ECCENTRICITY": 0.01207521, "INCLINATION": 98.9968, "RA_OF_ASC_NODE": 91.8117, "ARG_OF_PERICENTER": 197.3937, "MEAN_ANOMALY": 192.4495, "EPHEMERIS_TYPE": 0, "CLASSIFICATION_TYPE": "U", "NORAD_CAT_ID": 30205, "ELEMENT_SET_NO": 999, "REV_AT_EPOCH": 95548, "BSTAR": 0.00068609325, "MEAN_MOTION_DOT": 8.24e-06, "MEAN_MOTION_DDOT": 0}, "tle": {"line1": "1 30205U 99025VN  25340.24681442  .00000824  00000+0  68609-3 0  9995", "line2": "2 30205  98.9968  91.8117 0120752 197.3937 192.4495 13.88032873955482"}}, "geometry": {"type": "Point", "coordinates": [136.43826158585088, -77.0950951661711]}}, {"type": "Feature", "properties": {"norad_id": 30206, "name": "FENGYUN 1C DEB", "group": "fengyun-1c-debris", "lat": 60.737622598646446, "lon": -34.41261599238628, "alt_km": 619.7476468174455, "timestamp": "2025-12-07T03:52:32.771739+00:00", "meta": {"OBJECT_NAME": "FENGYUN 1C DEB", "OBJECT_ID": "1999-025VP", "EPOCH": "2025-12-06T11:01:38.756640", "MEAN_MOTION": 14.49115951, "ECCENTRICITY": 0.01463112, "INCLINATION": 98.2309, "RA_OF_ASC_NODE": 339.8736, "ARG_OF_PERICENTER": 55.4279, "MEAN_ANOMALY": 306.062, "EPHEMERIS_TYPE": 0, "CLASSIFICATION_TYPE": "U", "NORAD_CAT_ID": 30206, "ELEMENT_SET_NO": 999, "REV_AT_EPOCH": 99310, "BSTAR": 0.00085923552, "MEAN_MOTION_DOT": 3.696e-05, "MEAN_MOTION_DDOT": 0}, "tle": {"line1": "1 30206U 99025VP  25340.45947635  .00003696  00000+0  85924-3 0  9997", "line2": "2 30206  98.2309 339.8736 0146311  55.4279 306.0620 14.49115951993100"}}, "geometry": {"type": "Point", "coordinates": [-34.41261599238628, 60.737622598646446]}}, {"type": "Feature", "properties": {"norad_id": 30207, "name": "FENGYUN 1C DEB", "group": "fengyun-1c-debris", "lat": -5.965102872328614, "lon": 93.28919034606702, "alt_km": 1158.3691727024598, "timestamp": "2025-12-07T03:52:32.771750+00:00", "meta": {"OBJECT_NAME": "FENGYUN 1C DEB", "OBJECT_ID": "1999-025VQ", "EPOCH": "2025-12-06T14:02:51.677376", "MEAN_MOTION": 13.79129266, "ECCENTRICITY": 0.02603445, "INCLINATION": 98.574, "RA_OF_ASC_NODE": 91.8638, "ARG_OF_PERICENTER": 164.9769, "MEAN_ANOMALY": 210.6182, "EPHEMERIS_TYPE": 0, "CLASSIFICATION_TYPE": "U", "NORAD_CAT_ID": 30207, "ELEMENT_SET_NO": 999, "REV_AT_EPOCH": 94978, "BSTAR": 0.00055332707, "MEAN_MOTION_DOT": 6.92e-06, "MEAN_MOTION_DDOT": 0}, "tle": {"line1": "1 30207U 99025VQ  25340.58532034  .00000692  00000+0  55333-3 0  9999", "line2": "2 30207  98.5740  91.8638 0260344 164.9769 210.6182 13.79129266949786"}}, "geometry": {"type": "Point", "coordinates": [93.28919034606702, -5.965102872328614]}}]}